{
  "norad_id": 58788,
  "name": "STARLINK-31185",
  "history": [
    {
      "epoch": "2026-03-28T14:23:46.760064Z",
      "apogee_km": 483.88343883393645,
      "perigee_km": 482.27105348608893,
      "latitude_deg": -9.0566202486152e-06,
      "longitude_deg": 16.87338498808093,
      "height_km": 482.81948264080734,
      "semi_major_axis_km": 6861.214246160012,
      "eccentricity": 0.0001175,
      "inclination_deg": 43.0042,
      "raan_deg": 58.8362,
      "arg_perigee_deg": 272.4704,
      "mean_anomaly_deg": 87.6013,
      "mean_motion_rev_day": 15.27570599
    },
    {
      "epoch": "2026-03-29T04:31:11.855424Z",
      "apogee_km": 483.8450316984272,
      "perigee_km": 482.3190965785625,
      "latitude_deg": 4.2574857367768994e-05,
      "longitude_deg": 161.11483879624555,
      "height_km": 482.82142168091735,
      "semi_major_axis_km": 6861.219064138494,
      "eccentricity": 0.0001112,
      "inclination_deg": 43.0042,
      "raan_deg": 55.5122,
      "arg_perigee_deg": 272.8224,
      "mean_anomaly_deg": 87.2501,
      "mean_motion_rev_day": 15.2756899
    },
    {
      "epoch": "2026-03-30T04:03:29.325888Z",
      "apogee_km": 483.54698222718616,
      "perigee_km": 482.41215354685755,
      "latitude_deg": 4.511707730270731e-05,
      "longitude_deg": 161.53836955184917,
      "height_km": 482.80819667899436,
      "semi_major_axis_km": 6861.116567887021,
      "eccentricity": 8.27e-05,
      "inclination_deg": 43.0063,
      "raan_deg": 49.9752,
      "arg_perigee_deg": 264.7682,
      "mean_anomaly_deg": 95.3076,
      "mean_motion_rev_day": 15.2760322
    },
    {
      "epoch": "2026-03-30T05:37:38.457696Z",
      "apogee_km": 483.6329144407255,
      "perigee_km": 482.3128369006472,
      "latitude_deg": 3.086998259832054e-05,
      "longitude_deg": 137.56516035012905,
      "height_km": 482.7780689242825,
      "semi_major_axis_km": 6861.109875670686,
      "eccentricity": 9.62e-05,
      "inclination_deg": 43.0047,
      "raan_deg": 49.6045,
      "arg_perigee_deg": 267.5379,
      "mean_anomaly_deg": 92.5363,
      "mean_motion_rev_day": 15.27605455
    },
    {
      "epoch": "2026-03-30T05:37:38.458560Z",
      "apogee_km": 483.6331202740221,
      "perigee_km": 482.3126310673506,
      "latitude_deg": 3.322647054154799e-05,
      "longitude_deg": 137.5651592529189,
      "height_km": 482.7780777656701,
      "semi_major_axis_km": 6861.109875670686,
      "eccentricity": 9.623e-05,
      "inclination_deg": 43.0047,
      "raan_deg": 49.6045,
      "arg_perigee_deg": 267.5379,
      "mean_anomaly_deg": 92.5363,
      "mean_motion_rev_day": 15.27605455
    },
    {
      "epoch": "2026-03-31T03:35:52.508256Z",
      "apogee_km": 483.2324431835359,
      "perigee_km": 482.90118426340996,
      "latitude_deg": -1.4349486193236178e-05,
      "longitude_deg": 161.9313699951873,
      "height_km": 482.99803806300054,
      "semi_major_axis_km": 6861.203813723472,
      "eccentricity": 2.414e-05,
      "inclination_deg": 43.0002,
      "raan_deg": 44.4316,
      "arg_perigee_deg": 199.9094,
      "mean_anomaly_deg": 160.1748,
      "mean_motion_rev_day": 15.27574083
    },
    {
      "epoch": "2026-04-01T06:16:31.879776Z",
      "apogee_km": 483.91803229037123,
      "perigee_km": 482.1231534640747,
      "latitude_deg": -5.334094728897659e-05,
      "longitude_deg": 114.39657170390124,
      "height_km": 482.80148647361676,
      "semi_major_axis_km": 6861.157592877223,
      "eccentricity": 0.0001308,
      "inclination_deg": 43.0039,
      "raan_deg": 38.1565,
      "arg_perigee_deg": 269.7555,
      "mean_anomaly_deg": 90.3146,
      "mean_motion_rev_day": 15.27589519
    }
  ]
}